[{"OBJECT_NAME":"FLOCK 4Q-36","OBJECT_ID":"2023-174U","EPOCH":"2026-03-03T11:31:48.704448","MEAN_MOTION":15.50735906,"ECCENTRICITY":0.0007687,"INCLINATION":97.3903,"RA_OF_ASC_NODE":151.5849,"ARG_OF_PERICENTER":165.9008,"MEAN_ANOMALY":194.2459,"EPHEMERIS_TYPE":0,"CLASSIFICATION_TYPE":"U","NORAD_CAT_ID":58274,"ELEMENT_SET_NO":999,"REV_AT_EPOCH":12941,"BSTAR":0.00061484,"MEAN_MOTION_DOT":0.00035413,"MEAN_MOTION_DDOT":0},{"OBJECT_NAME":"FLOCK 4Q-12","OBJECT_ID":"2023-174V","EPOCH":"2026-03-03T05:34:57.196416","MEAN_MOTION":15.5080622,"ECCENTRICITY":0.0006099,"INCLINATION":97.3899,"RA_OF_ASC_NODE":151.2131,"ARG_OF_PERICENTER":172.7711,"MEAN_ANOMALY":187.363,"EPHEMERIS_TYPE":0,"CLASSIFICATION_TYPE":"U","NORAD_CAT_ID":58275,"ELEMENT_SET_NO":999,"REV_AT_EPOCH":12939,"BSTAR":0.0012807,"MEAN_MOTION_DOT":0.00074381,"MEAN_MOTION_DDOT":0},{"OBJECT_NAME":"FLOCK 4Q-28","OBJECT_ID":"2023-174AA","EPOCH":"2026-03-03T05:38:17.684160","MEAN_MOTION":15.48545719,"ECCENTRICITY":0.0007326,"INCLINATION":97.3924,"RA_OF_ASC_NODE":150.4638,"ARG_OF_PERICENTER":172.563,"MEAN_ANOMALY":187.573,"EPHEMERIS_TYPE":0,"CLASSIFICATION_TYPE":"U","NORAD_CAT_ID":58280,"ELEMENT_SET_NO":999,"REV_AT_EPOCH":12931,"BSTAR":0.00065758,"MEAN_MOTION_DOT":0.00035069,"MEAN_MOTION_DDOT":0},{"OBJECT_NAME":"FLOCK 4Q-27","OBJECT_ID":"2023-174AC","EPOCH":"2026-03-03T05:32:12.836832","MEAN_MOTION":15.48522732,"ECCENTRICITY":0.0006722,"INCLINATION":97.3865,"RA_OF_ASC_NODE":150.0042,"ARG_OF_PERICENTER":167.6729,"MEAN_ANOMALY":192.4688,"EPHEMERIS_TYPE":0,"CLASSIFICATION_TYPE":"U","NORAD_CAT_ID":58282,"ELEMENT_SET_NO":999,"REV_AT_EPOCH":12932,"BSTAR":0.00068962,"MEAN_MOTION_DOT":0.00036755,"MEAN_MOTION_DDOT":0},{"OBJECT_NAME":"FLOCK 4Q-26","OBJECT_ID":"2023-174AE","EPOCH":"2026-03-03T05:06:09.643104","MEAN_MOTION":15.50326732,"ECCENTRICITY":0.00072,"INCLINATION":97.3917,"RA_OF_ASC_NODE":151.3975,"ARG_OF_PERICENTER":170.9165,"MEAN_ANOMALY":189.2218,"EPHEMERIS_TYPE":0,"CLASSIFICATION_TYPE":"U","NORAD_CAT_ID":58284,"ELEMENT_SET_NO":999,"REV_AT_EPOCH":12937,"BSTAR":0.00068593,"MEAN_MOTION_DOT":0.00038962,"MEAN_MOTION_DDOT":0},{"OBJECT_NAME":"FLOCK 4Q-31","OBJECT_ID":"2023-174AF","EPOCH":"2026-03-03T04:15:14.166720","MEAN_MOTION":15.49817554,"ECCENTRICITY":0.000786,"INCLINATION":97.396,"RA_OF_ASC_NODE":151.0042,"ARG_OF_PERICENTER":173.0541,"MEAN_ANOMALY":187.0821,"EPHEMERIS_TYPE":0,"CLASSIFICATION_TYPE":"U","NORAD_CAT_ID":58285,"ELEMENT_SET_NO":999,"REV_AT_EPOCH":12932,"BSTAR":0.00077411,"MEAN_MOTION_DOT":0.00043233,"MEAN_MOTION_DDOT":0},{"OBJECT_NAME":"FLOCK 4Q-30","OBJECT_ID":"2023-174AG","EPOCH":"2026-03-03T11:44:03.539904","MEAN_MOTION":15.50071848,"ECCENTRICITY":0.0007693,"INCLINATION":97.3961,"RA_OF_ASC_NODE":151.5038,"ARG_OF_PERICENTER":167.2347,"MEAN_ANOMALY":192.9101,"EPHEMERIS_TYPE":0,"CLASSIFICATION_TYPE":"U","NORAD_CAT_ID":58286,"ELEMENT_SET_NO":999,"REV_AT_EPOCH":12938,"BSTAR":0.00074904,"MEAN_MOTION_DOT":0.00042198,"MEAN_MOTION_DDOT":0},{"OBJECT_NAME":"PELICAN-1","OBJECT_ID":"2023-174AS","EPOCH":"2026-03-03T05:40:01.387488","MEAN_MOTION":15.6339398,"ECCENTRICITY":0.0008552,"INCLINATION":97.4026,"RA_OF_ASC_NODE":156.6828,"ARG_OF_PERICENTER":251.9755,"MEAN_ANOMALY":108.0572,"EPHEMERIS_TYPE":0,"CLASSIFICATION_TYPE":"U","NORAD_CAT_ID":58296,"ELEMENT_SET_NO":999,"REV_AT_EPOCH":12955,"BSTAR":0.00098998,"MEAN_MOTION_DOT":0.00092027,"MEAN_MOTION_DDOT":0},{"OBJECT_NAME":"FLOCK 4Q-25","OBJECT_ID":"2023-174AZ","EPOCH":"2026-03-03T11:40:09.441696","MEAN_MOTION":15.55835289,"ECCENTRICITY":0.0005275,"INCLINATION":97.3877,"RA_OF_ASC_NODE":152.3368,"ARG_OF_PERICENTER":153.9177,"MEAN_ANOMALY":206.2344,"EPHEMERIS_TYPE":0,"CLASSIFICATION_TYPE":"U","NORAD_CAT_ID":58303,"ELEMENT_SET_NO":999,"REV_AT_EPOCH":12950,"BSTAR":0.00081093,"MEAN_MOTION_DOT":0.0005629,"MEAN_MOTION_DDOT":0},{"OBJECT_NAME":"FLOCK 4Q-29","OBJECT_ID":"2023-174BA","EPOCH":"2026-03-03T12:19:55.574688","MEAN_MOTION":15.49033788,"ECCENTRICITY":0.0007959,"INCLINATION":97.3948,"RA_OF_ASC_NODE":151.1337,"ARG_OF_PERICENTER":159.8958,"MEAN_ANOMALY":200.2608,"EPHEMERIS_TYPE":0,"CLASSIFICATION_TYPE":"U","NORAD_CAT_ID":58304,"ELEMENT_SET_NO":999,"REV_AT_EPOCH":12936,"BSTAR":0.00073287,"MEAN_MOTION_DOT":0.00039798,"MEAN_MOTION_DDOT":0},{"OBJECT_NAME":"FLOCK 4Q-22","OBJECT_ID":"2023-174BC","EPOCH":"2026-03-03T11:37:37.892640","MEAN_MOTION":15.51579353,"ECCENTRICITY":0.0006778,"INCLINATION":97.3865,"RA_OF_ASC_NODE":151.2688,"ARG_OF_PERICENTER":163.066,"MEAN_ANOMALY":197.082,"EPHEMERIS_TYPE":0,"CLASSIFICATION_TYPE":"U","NORAD_CAT_ID":58306,"ELEMENT_SET_NO":999,"REV_AT_EPOCH":12943,"BSTAR":0.00074664,"MEAN_MOTION_DOT":0.00044371,"MEAN_MOTION_DDOT":0},{"OBJECT_NAME":"FLOCK 4Q-23","OBJECT_ID":"2023-174BD","EPOCH":"2026-03-03T04:42:47.690784","MEAN_MOTION":15.54619677,"ECCENTRICITY":0.0007082,"INCLINATION":97.3974,"RA_OF_ASC_NODE":152.4944,"ARG_OF_PERICENTER":161.6957,"MEAN_ANOMALY":198.4553,"EPHEMERIS_TYPE":0,"CLASSIFICATION_TYPE":"U","NORAD_CAT_ID":58307,"ELEMENT_SET_NO":999,"REV_AT_EPOCH":12942,"BSTAR":0.00079814,"MEAN_MOTION_DOT":0.00052992,"MEAN_MOTION_DDOT":0},{"OBJECT_NAME":"FLOCK 4Q-33","OBJECT_ID":"2023-174BE","EPOCH":"2026-03-03T05:01:00.045984","MEAN_MOTION":15.50670844,"ECCENTRICITY":0.0007469,"INCLINATION":97.3891,"RA_OF_ASC_NODE":150.9276,"ARG_OF_PERICENTER":154.861,"MEAN_ANOMALY":205.3007,"EPHEMERIS_TYPE":0,"CLASSIFICATION_TYPE":"U","NORAD_CAT_ID":58308,"ELEMENT_SET_NO":999,"REV_AT_EPOCH":12937,"BSTAR":0.00067262,"MEAN_MOTION_DOT":0.00038674,"MEAN_MOTION_DDOT":0},{"OBJECT_NAME":"FLOCK 4Q-35","OBJECT_ID":"2023-174BF","EPOCH":"2026-03-03T12:20:50.539776","MEAN_MOTION":15.4967923,"ECCENTRICITY":0.00083,"INCLINATION":97.3912,"RA_OF_ASC_NODE":151.4144,"ARG_OF_PERICENTER":166.6898,"MEAN_ANOMALY":193.4573,"EPHEMERIS_TYPE":0,"CLASSIFICATION_TYPE":"U","NORAD_CAT_ID":58309,"ELEMENT_SET_NO":999,"REV_AT_EPOCH":12940,"BSTAR":0.00074127,"MEAN_MOTION_DOT":0.00041189,"MEAN_MOTION_DDOT":0},{"OBJECT_NAME":"FLOCK 4Q-34","OBJECT_ID":"2023-174BN","EPOCH":"2026-03-03T04:59:56.832288","MEAN_MOTION":15.54800011,"ECCENTRICITY":0.0006938,"INCLINATION":97.3868,"RA_OF_ASC_NODE":151.912,"ARG_OF_PERICENTER":162.575,"MEAN_ANOMALY":197.5743,"EPHEMERIS_TYPE":0,"CLASSIFICATION_TYPE":"U","NORAD_CAT_ID":58316,"ELEMENT_SET_NO":999,"REV_AT_EPOCH":12943,"BSTAR":0.00078833,"MEAN_MOTION_DOT":0.00052681,"MEAN_MOTION_DDOT":0},{"OBJECT_NAME":"FLOCK 4Q-7","OBJECT_ID":"2023-174BQ","EPOCH":"2026-03-03T05:21:56.837664","MEAN_MOTION":15.48683542,"ECCENTRICITY":0.0008181,"INCLINATION":97.3945,"RA_OF_ASC_NODE":150.6479,"ARG_OF_PERICENTER":159.4814,"MEAN_ANOMALY":200.6767,"EPHEMERIS_TYPE":0,"CLASSIFICATION_TYPE":"U","NORAD_CAT_ID":58318,"ELEMENT_SET_NO":999,"REV_AT_EPOCH":12931,"BSTAR":0.00072037,"MEAN_MOTION_DOT":0.00038639,"MEAN_MOTION_DDOT":0}]
