FLOCK 4Q-36             
1 58274U 23174U   26062.48042482  .00035413  00000+0  61484-3 0  9992
2 58274  97.3903 151.5849 0007687 165.9008 194.2459 15.50735906129411
FLOCK 4Q-12             
1 58275U 23174V   26062.23260644  .00074381  00000+0  12807-2 0  9999
2 58275  97.3899 151.2131 0006099 172.7711 187.3630 15.50806220129399
FLOCK 4Q-28             
1 58280U 23174AA  26062.23492690  .00035069  00000+0  65758-3 0  9997
2 58280  97.3924 150.4638 0007326 172.5630 187.5730 15.48545719129314
FLOCK 4Q-27             
1 58282U 23174AC  26062.23070413  .00036755  00000+0  68962-3 0  9997
2 58282  97.3865 150.0042 0006722 167.6729 192.4688 15.48522732129326
FLOCK 4Q-26             
1 58284U 23174AE  26062.21261161  .00038962  00000+0  68593-3 0  9991
2 58284  97.3917 151.3975 0007200 170.9165 189.2218 15.50326732129371
FLOCK 4Q-31             
1 58285U 23174AF  26062.17724730  .00043233  00000+0  77411-3 0  9999
2 58285  97.3960 151.0042 0007860 173.0541 187.0821 15.49817554129322
FLOCK 4Q-30             
1 58286U 23174AG  26062.48892986  .00042198  00000+0  74904-3 0  9996
2 58286  97.3961 151.5038 0007693 167.2347 192.9101 15.50071848129389
PELICAN-1               
1 58296U 23174AS  26062.23612717  .00092027  00000+0  98998-3 0  9997
2 58296  97.4026 156.6828 0008552 251.9755 108.0572 15.63393980129552
FLOCK 4Q-25             
1 58303U 23174AZ  26062.48622039  .00056290  00000+0  81093-3 0  9991
2 58303  97.3877 152.3368 0005275 153.9177 206.2344 15.55835289129501
FLOCK 4Q-29             
1 58304U 23174BA  26062.51383767  .00039798  00000+0  73287-3 0  9998
2 58304  97.3948 151.1337 0007959 159.8958 200.2608 15.49033788129365
FLOCK 4Q-22             
1 58306U 23174BC  26062.48446635  .00044371  00000+0  74664-3 0  9993
2 58306  97.3865 151.2688 0006778 163.0660 197.0820 15.51579353129433
FLOCK 4Q-23             
1 58307U 23174BD  26062.19638531  .00052992  00000+0  79814-3 0  9990
2 58307  97.3974 152.4944 0007082 161.6957 198.4553 15.54619677129429
FLOCK 4Q-33             
1 58308U 23174BE  26062.20902831  .00038674  00000+0  67262-3 0  9995
2 58308  97.3891 150.9276 0007469 154.8610 205.3007 15.50670844129373
FLOCK 4Q-35             
1 58309U 23174BF  26062.51447384  .00041189  00000+0  74127-3 0  9990
2 58309  97.3912 151.4144 0008300 166.6898 193.4573 15.49679230129407
FLOCK 4Q-34             
1 58316U 23174BN  26062.20829667  .00052681  00000+0  78833-3 0  9999
2 58316  97.3868 151.9120 0006938 162.5750 197.5743 15.54800011129437
FLOCK 4Q-7              
1 58318U 23174BQ  26062.22357451  .00038639  00000+0  72037-3 0  9997
2 58318  97.3945 150.6479 0008181 159.4814 200.6767 15.48683542129316
